ZIYUAN 3 (ZY 3)         
1 38046U 12001A   17286.52129333  .00006432  00000-0  29187-3 0  9992
2 38046  97.5230 353.5952 0002630  54.4175  59.0505 15.21152223319942
RISAT-1                 
1 38248U 12017A   17286.58101465  .00000664  00000-0  45671-4 0  9993
2 38248  97.5749 292.7573 0004840  19.6303  93.2487 15.09257978301090
ARIRANG-3 (KOMPSAT-3)   
1 38338U 12025B   17286.50241509  .00000084  00000-0  26391-4 0  9992
2 38338  98.1461 222.8508 0009698 328.4598  31.6008 14.61598238288467
KANOPUS-V 1             
1 38707U 12039A   17286.57394882  .00000496  00000-0  25970-4 0  9996
2 38707  97.4489 203.1835 0002208  73.2951  50.7067 15.20299185290041
EXACTVIEW-1 (ADS-1B)    
1 38709U 12039C   17286.45667773 -.00000004  00000-0  19080-4 0  9998
2 38709  99.1116 267.1399 0009892 276.0183  83.9866 14.23954489271669
SPOT 6                  
1 38755U 12047A   17286.49139115  .00000001  00000-0  99996-5 0  9997
2 38755  98.2083 352.4946 0001613  89.4692 270.6692 14.58551274271185
PLEIADES 1B             
1 39019U 12068A   17286.50978637  .00000023  00000-0  14662-4 0  9996
2 39019  98.1930   0.1179 0001354  78.2452 281.8901 14.58555877258967
GOKTURK 2               
1 39030U 12073A   17286.54944859  .00000076  00000-0  19598-4 0  9999
2 39030  97.9779 177.3778 0002788  61.9992 298.1507 14.72671213257972
LANDSAT 8               
1 39084U 13008A   17286.27012527  .00000068  00000-0  25073-4 0  9991
2 39084  98.2126 355.1548 0001255  98.9138 261.2202 14.57108949236426
SARAL                   
1 39086U 13009A   17286.53540406  .00000013  00000-0  21125-4 0  9999
2 39086  98.5402 112.2858 0000190 149.4619 210.6575 14.32012947242048
GAOFEN 1                
1 39150U 13018A   17286.50620243  .00000100  00000-0  21667-4 0  9994
2 39150  97.9465   8.3924 0020121  38.0407 322.2218 14.76508908240705
VNREDSAT 1              
1 39160U 13021B   17286.44606064  .00000113  00000-0  31144-4 0  9992
2 39160  98.0732 359.7561 0001249  80.1576 279.9770 14.62983113236896
ARIRANG-5 (KOMPSAT-5)   
1 39227U 13042A   17286.52048618  .00000079  00000-0  99450-5 0  9999
2 39227  97.6109 109.7027 0002373  78.8233   5.2359 15.04509127227480
YAOGAN 18               
1 39363U 13059A   17286.52184096  .00001104  00000-0  57485-4 0  9990
2 39363  97.3803 352.2099 0003430  94.9538  17.8992 15.18038893219277
SKYSAT-1                
1 39418U 13066C   17286.40390305 -.00000091  00000-0 -25963-5 0  9991
2 39418  97.6959   8.0299 0019952 249.0749 110.8341 14.98552824212787
DUBAISAT-2              
1 39419U 13066D   17286.49822208  .00000817  00000-0  82388-4 0  9990
2 39419  97.6684 356.4431 0012571 229.4671 130.5467 14.93718501212168
GPM-CORE                
1 39574U 14009C   17286.41544366  .00006634  00000-0  10034-3 0  9999
2 39574  65.0084 237.8085 0010732 283.0487  76.9461 15.55551850205911
SENTINEL-1A             
1 39634U 14016A   17286.54450024 -.00000054  00000-0 -17512-5 0  9997
2 39634  98.1819 292.5064 0001422  76.2803 283.8560 14.59198174187957
KAZEOSAT 1              
1 39731U 14024A   17286.51725708  .00000028  00000-0  21668-4 0  9990
2 39731  98.4118   3.9687 0001302  76.1330 284.0007 14.42022320181949
ALOS-2                  
1 39766U 14029A   17286.54009769  .00000001  00000-0  70113-5 0  9999
2 39766  97.9227  22.1683 0001336  76.5797 283.5575 14.79470612183104
KAZEOSAT 2              
1 40010U 14033A   17286.54608543  .00000081  00000-0  16872-4 0  9992
2 40010  97.8818 186.5426 0015136 251.2470 108.7094 14.82069116179472
HODOYOSHI-4             
1 40011U 14033B   17286.53427130  .00000166  00000-0  28170-4 0  9991
2 40011  97.8717 182.7158 0025297 245.9787 113.8775 14.80922325179270
DEIMOS-2                
1 40013U 14033D   17286.57795890  .00000168  00000-0  25995-4 0  9992
2 40013  97.8731 189.2852 0001412  23.0161 337.1134 14.84855506179770
HODOYOSHI-3             
1 40015U 14033F   17286.49691190  .00000257  00000-0  42159-4 0  9993
2 40015  97.8586 176.9623 0035658 253.1806 106.5492 14.78291892178937
SPOT 7                  
1 40053U 14034A   17286.52507824 -.00000046  00000-0  00000-0 0  9992
2 40053  98.2213 352.2754 0001394  93.3413 266.7945 14.58541859175122
SKYSAT-2                
1 40072U 14037D   17286.43348684  .00000136  00000-0  24992-4 0  9992
2 40072  98.3471  42.3089 0007410  35.0167 325.1530 14.81024879176486
WORLDVIEW-3 (WV-3)      
1 40115U 14048A   17286.32072729  .00000077  00000-0  15330-4 0  9994
2 40115  97.8622   5.0413 0001024  48.2241 311.9075 14.84881482171630
YAOGAN 21               
1 40143U 14053A   17286.51798806  .00001497  00000-0  62707-4 0  9990
2 40143  97.3016 356.7306 0011269 129.7533 354.9056 15.25019517172434
YAOGAN 22               
1 40275U 14063A   17286.49124792 -.00000044  00000-0  00000+0 0  9992
2 40275 100.4231  37.8300 0006622 158.2439 201.8960 13.15323027143191
ASNARO                  
1 40298U 14070A   17286.49863426  .00001754  00000-0  85669-4 0  9996
2 40298  97.4867   6.3638 0002220  91.1914  98.8076 15.19591644162825
HODOYOSHI-1             
1 40299U 14070B   17286.51083676  .00000980  00000-0  45223-4 0  9993
2 40299  97.3981   7.4321 0014485  43.0513  82.8960 15.22502047162941
CHUBUSAT-1              
1 40300U 14070C   17286.51771293  .00001108  00000-0  52623-4 0  9990
2 40300  97.3882   4.2151 0021922  50.7198  73.8162 15.21127356162778
QSAT-EOS                
1 40301U 14070D   17286.51175926  .00002398  00000-0  10159-3 0  9991
2 40301  97.3820   4.6018 0028470  44.2243 141.1095 15.23772357162842
TSUBAME                 
1 40302U 14070E   17286.47657407  .00001442  00000-0  75561-4 0  9994
2 40302  97.3663 355.2439 0041331  71.5061 126.7800 15.16648473162275
YAOGAN 23               
1 40305U 14071A   17286.48531103  .00001310  00000-0  67876-4 0  9997
2 40305  97.4340 222.3258 0001115 146.9161 317.9753 15.17928278161374
YAOGAN 24               
1 40310U 14072A   17286.55607280  .00000089  00000-0  20012-4 0  9995
2 40310  98.0164  45.9588 0018384  51.6924 308.5937 14.77151378156199
CBERS 4                 
1 40336U 14079A   17286.49705335  .00000015  00000-0  20240-4 0  9995
2 40336  98.4444 358.7595 0001788  87.4238 272.7153 14.35465668149389
RESURS P2               
1 40360U 14087A   17286.54575231  .00001260  00000-0  43052-4 0  9996
2 40360  97.2763  18.1579 0012300  87.3619  87.6581 15.32077966156508
YAOGAN 26               
1 40362U 14088A   17286.55251081  .00001775  00000-0  70955-4 0  9997
2 40362  97.3471   3.5982 0005007 211.1391 261.8816 15.26413254155810
SMAP                    
1 40376U 15003A   17286.47434798  .00000047  00000-0  18181-4 0  9993
2 40376  98.1255 292.4477 0001523 103.2510 256.8866 14.63376672144195
KOMPSAT-3A              
1 40536U 15014A   17286.53112940  .00000439  00000-0  29014-4 0  9994
2 40536  97.4890 223.9729 0009042 297.0695 150.8141 15.12370242140938
SENTINEL-2A             
1 40697U 15028A   17286.50120504  .00000024  00000-0  25660-4 0  9992
2 40697  98.5721 359.7490 0001308  77.2349 282.8980 14.30816087120616
CARBONITE 1 (CBNT-1)    
1 40718U 15032D   17286.56368308  .00000098  00000-0  22242-4 0  9997
2 40718  97.9531 176.5871 0018005 115.1215 245.1865 14.74553467121697
YAOGAN 27               
1 40878U 15040A   17286.52413726 -.00000044  00000-0  00000-0 0  9990
2 40878 100.3826 345.1322 0007726 302.7338  57.3034 13.15956337102386
LAPAN-A2                
1 40931U 15052B   17286.51838345  .00000730  00000-0  12776-4 0  9998
2 40931   5.9960 108.9757 0012417 118.9090 241.2419 14.76548229110483
YAOGAN 28               
1 41026U 15064A   17286.55967890  .00001954  00000-0  69427-4 0  9993
2 41026  97.3319  52.7469 0008281 270.2884 218.5918 15.30197660107853
YAOGAN 29               
1 41038U 15069A   17286.47779130  .00000044  00000-0  12565-4 0  9990
2 41038  97.9112 266.9598 0001261  98.0724 262.0633 14.80413086101584
KENT RIDGE 1            
1 41167U 15077B   17286.49141580  .00001148  00000-0  30459-4 0  9994
2 41167  14.9814  40.2827 0010964 186.0950 249.0710 15.08777738100838
TELEOS 1                
1 41169U 15077D   17286.49172501  .00001587  00000-0  56060-4 0  9996
2 41169  14.9824  37.2285 0010244 186.9922 138.3263 15.09568578100850
JASON-3                 
1 41240U 16002A   17286.52969488 -.00000053  00000-0  33863-4 0  9991
2 41240  66.0409 236.3440 0008176 267.8465  92.1613 12.80929446 81309
SENTINEL-3A             
1 41335U 16011A   17286.53831315  .00000001  00000-0  18354-4 0  9994
2 41335  98.6283 352.2812 0001269 101.5269 258.6054 14.26735026 86234
SENTINEL-1B             
1 41456U 16025A   17286.50972816 -.00000056  00000-0 -21829-5 0  9996
2 41456  98.1819 292.2965 0001385  76.4618 283.6737 14.59198228 78114
ZIYUAN 3-2 (ZY 3-2)     
1 41556U 16033A   17286.57902010  .00044988  00000-0  20090-2 0  9998
2 41556  97.4557   2.2701 0002331 110.8506   2.5640 15.21207401 76241
NUSAT-1 (FRESCO)        
1 41557U 16033B   17286.27689254  .00003025  00000-0  11494-3 0  9994
2 41557  97.4557   5.7764 0012783 315.0447  44.9756 15.27524051 76454
NUSAT-2 (BATATA)        
1 41558U 16033C   17286.25725297  .00003049  00000-0  11649-3 0  9999
2 41558  97.4585   5.8236 0012245 314.0245  45.9984 15.27345913 76440
CARTOSAT-2C             
1 41599U 16040A   17286.50050718  .00000881  00000-0  44917-4 0  9995
2 41599  97.4461 346.7057 0014649  29.5739  83.9550 15.19274930 72619
SKYSAT-C1               
1 41601U 16040C   17286.58330319  .00000894  00000-0  41830-4 0  9990
2 41601  97.6012 353.3111 0002148  71.9853 288.1621 15.22405492 72757
LAPAN-A3                
1 41603U 16040E   17286.46184228  .00000168  00000-0  11166-4 0  9998
2 41603  97.4479 346.9500 0014398  28.5773  90.0340 15.19433000 72618
BIROS                   
1 41604U 16040F   17286.22340261  .00001105  00000-0  52819-4 0  9996
2 41604  97.4491 347.3917 0013140  22.4983 337.6826 15.21038610 72621
